STARLINK-30494          
1 57970U 23151G   26068.36049035 -.00001272  00000+0 -35691-4 0  9993
2 57970  43.0027 192.4566 0001155 241.5536 118.5200 15.28417441137406
STARLINK-35072          
1 65505U 25198P   26068.83354357  .00024320  00000+0  83041-3 0  9995
2 65505  53.1581 270.2196 0001077  73.5353 286.5766 15.30205251 28648
